id,city,postal_code,state,street_address,phone_number,email
1,Aurora,73775,CA,214 11-street,8362856246,rbreland@golddex.com
2,Arlington,21148,LA,618 13-street,1915932260,vyglesias@zathunicon.com
3,Riverside,78345,TX,311 18-street,8597075461,rtillotson@stanredtax.com
4,San Jose,60944,CA,7991 13-street,9499464548,edhamer@zoomit.com
5,Chesapeake,25387,AZ,6427 12-street,5471127807,ainouye@xx-zobam.com
6,Washington,19656,MA,725 10-street,7333988849,wogg@silis.com
7,San Diego,69370,CA,362 7-street,5329767652,cyum@donquadtech.com
8,Norfolk,34287,NC,8176 5-street,906069863,lsengbusch@green-plus.com
9,Pittsburgh,81537,AK,8307 3-street,4735065328,cfredicks@conecom.com
10,Boston,27290,TN,9782 3-street,1793866614,nkonopacki@donquadtech.com
11,Scottsdale,43752,NV,6056 3-street,1667017314,
12,Sacramento,25584,CA,5312 8-street,2536791037,cheintzman@openlane.com
13,El Paso,63070,TX,5349 1-street,951707089,
14,Irvine,38666,NC,5462 18-street,6131183504,jhoa@funholding.com
15,San Diego,72570,CA,3055 19-street,1139788123,ebuzick@inity.com
16,San Jose,25052,CA,7522 18-street,6515736908,mbutt@stanredtax.com
17,Bakersfield,96230,FL,813 17-street,7503991134,cdickerson@zoomit.com
18,Fremont,11222,ID,3615 9-street,9593648296,mtomasulo@konmatfix.com
19,Portland,40510,NV,5957 6-street,2925384359,cwitten@stanredtax.com
20,Sacramento,91762,CA,6966 19-street,4759037506,esuffield@sunnamplex.com
21,Fort Worth,90508,TX,300 15-street,2608043737,dnicolozakes@iselectrics.com
22,Tampa,96649,HI,5266 14-street,574711693,tberlanga@year-job.com
23,Fresno,4263,CA,3247 7-street,7379937323,llacovara@ganjaflex.com
24,Chandler,33207,TX,8776 9-street,1221846532,ehaufler@rangreen.com
25,El Paso,26494,TX,1510 13-street,1044404805,kankeny@statholdings.com
26,Kansas City,29870,AZ,7621 2-street,1300567348,agotter@xx-holding.com
27,Toledo,33178,NC,3411 18-street,440114244,jthreets@plexzap.com
28,North Las Vegas,94634,CA,8625 12-street,5543331462,lparlato@donware.com
29,Lexington-Fayette,83393,PA,1761 8-street,435203758,bcolaizzo@dambase.com
30,Indianapolis,64043,IN,1109 19-street,5409727362,gcantres@doncon.com
31,Arlington,60462,LA,2364 10-street,3592084297,sdrymon@faxquote.com
32,Portland,35444,NV,3848 10-street,5774993810,lkulzer@doncon.com
33,Arlington,50692,LA,9433 17-street,3546386263,szagen@year-job.com
34,Louisville/Jefferson County,77213,OR,7682 2-street,1876735707,gmastella@zencorporation.com
35,Dallas,27165,TX,8056 10-street,9184935689,smiceli@yearin.com
36,Las Vegas,34902,WI,1343 7-street,3630610787,hfigeroa@conecom.com
37,Anaheim,6679,CA,3704 14-street,1492372600,aandreason@newex.com
38,Aurora,71878,CA,2594 4-street,1184653690,psweigard@newex.com
39,Hialeah,92257,NV,3961 9-street,5602119226,sfredicks@plexzap.com
40,New Orleans,89957,CA,7221 20-street,9282367380,
41,Seattle,29115,WA,5257 8-street,2714111010,mdopico@finjob.com
42,Henderson,76098,NE,8498 3-street,4715954992,jdopico@lexiqvolax.com
43,Durham,35246,WI,8001 15-street,8593039077,jriopelle@rantouch.com
44,Austin,87800,TX,2022 4-street,4768268545,smartabano@xx-holding.com
45,Lubbock,18982,CA,2866 15-street,4187293928,tshinko@zumgoity.com
46,Toledo,6697,NC,6277 11-street,6908036508,lmelnyk@treequote.com
47,Houston,97848,TX,5846 17-street,3914162377,loldroyd@zoomit.com
48,Greensboro,69943,NJ,7506 20-street,1287400647,ddrymon@rantouch.com
49,Dallas,25652,TX,3379 11-street,508064495,blipkin@betatech.com
50,Henderson,74885,NE,2118 14-street,3843925230,mmaillard@xx-holding.com
51,New York,36811,NY,5484 2-street,8341217590,cgellinger@mathtouch.com
52,Indianapolis,36195,IN,6654 2-street,9928205618,
53,Phoenix,98157,AZ,8729 9-street,4480745325,fwolny@j-texon.com
54,Las Vegas,22869,WI,9388 1-street,3404616078,sscriven@plusstrip.com
55,Atlanta,44304,CO,4774 21-street,1167347296,oyglesias@plussunin.com
56,Santa Ana,74784,MO,9382 20-street,6461443016,mwaycott@singletechno.com
57,Irving,98039,AZ,3826 4-street,4918225437,imunns@rantouch.com
58,Jersey City,53620,CA,4999 14-street,821858917,sliukko@zoomit.com
59,Aurora,31477,CA,5047 14-street,4617668061,lbrossart@silis.com
60,Chula Vista,98495,IN,3051 20-street,2212004410,chagele@dalttechnology.com
61,Boston,97688,TN,4421 13-street,2689315292,cbutt@betasoloin.com
62,Winston-Salem,98732,AZ,4488 15-street,2201698109,jcastros@goodsilron.com
63,Raleigh,64542,FL,102 10-street,7668191481,dpaprocki@cancity.com
64,Omaha,34070,NC,4305 20-street,1125166542,tmcdoniel@condax.com
65,Stockton,50069,OH,3849 12-street,1172917404,awieser@green-plus.com
66,Tampa,47311,HI,9206 1-street,6557393050,cschemmer@domzoom.com
67,Houston,53471,TX,6298 2-street,1233189579,hhamilton@treequote.com
68,Atlanta,59262,CO,6844 20-street,1242693102,tstrassner@streethex.com
69,Stockton,17938,OH,8864 16-street,3429381349,hengelberg@plussunin.com
70,Lubbock,93056,CA,8658 8-street,1143314532,ospickerman@streethex.com
71,Riverside,84244,TX,9172 14-street,1144830813,ldegroot@silis.com
72,Las Vegas,34551,WI,5452 15-street,9974383011,gbiddy@streethex.com
73,St. Louis,72983,CA,679 20-street,8675485710,
74,San Antonio,40443,TX,7738 19-street,5826152725,rmonterrubio@zathunicon.com
75,Oakland,23380,MN,5672 5-street,2418025655,sstuer@gogozoom.com
76,Austin,1739,TX,448 8-street,1154756272,bfallick@betatech.com
77,Mesa,62788,VA,8175 19-street,8127738324,njillson@rantouch.com
78,Nashville-Davidson,61402,MD,1589 14-street,7319698975,eauber@newex.com
79,Madison,63101,TX,2543 13-street,559525544,alayous@streethex.com
80,North Las Vegas,18448,CA,6046 14-street,1020606889,fcaudy@plusstrip.com
81,New Orleans,37300,CA,9374 3-street,3172362872,prentfro@zencorporation.com
82,Phoenix,15296,AZ,3198 10-street,6581179280,lmaillard@stanredtax.com
83,Irving,69507,AZ,8622 19-street,1101712519,hfigeroa@sonron.com
84,Seattle,75487,WA,74 10-street,288261656,jrentfro@xx-zobam.com
85,Dallas,2297,TX,1699 20-street,1691240986,ddrymon@codehow.com
86,Charlotte,5450,NC,879 20-street,5212394098,kkines@mathtouch.com
87,Minneapolis,7866,OK,1515 11-street,9419130609,ahixenbaugh@golddex.com
88,Glendale,79909,TX,3547 19-street,8257606186,kskursky@doncon.com
89,Fremont,34236,ID,4047 9-street,9529868860,lsaras@codehow.com
90,Reno,55478,VA,8055 21-street,384435402,jcanlas@ontomedia.com
91,Gilbert,72475,LA,3 11-street,7563155732,xscriven@inity.com
92,Charlotte,7324,NC,2765 14-street,3888701538,lpadilla@openlane.com
93,Cincinnati,5167,MN,7607 21-street,9789285609,ddilliard@stanredtax.com
94,Seattle,72196,WA,3785 3-street,6208809989,gbeech@plusstrip.com
95,Stockton,33220,OH,1067 12-street,7530246277,rdarakjy@ontomedia.com
96,Denver,27240,CO,6963 19-street,717780062,lkeetch@green-plus.com
97,Nashville-Davidson,45518,MD,248 3-street,6924612766,eshields@condax.com
98,Oklahoma City,82705,KY,3235 3-street,8778996141,osteffensmeier@sonron.com
99,Austin,47788,TX,8265 18-street,2684083167,ddopico@dontechi.com
100,Louisville/Jefferson County,38378,OR,5462 15-street,1815170019,wuyetake@streethex.com
101,Milwaukee,60245,NM,1397 6-street,1818417064,rhughey@finhigh.com
102,Stockton,2326,OH,6392 12-street,7113525610,qhagele@plussunin.com
103,Norfolk,26582,NC,4455 20-street,8726406830,imaclead@funholding.com
104,Washington,29696,MA,9497 18-street,8954098677,mtoelkes@rangreen.com
105,Tucson,41426,CA,6238 14-street,8451538520,bflister@silis.com
106,Miami,85953,CA,277 11-street,6519084776,tdilliard@zathunicon.com
107,San Antonio,2101,TX,6636 5-street,6810891405,mzepp@donware.com
108,Tulsa,22814,OH,5904 15-street,2303634673,
109,Colorado Springs,52304,NE,3133 8-street,7792219752,lbiddy@sumace.com
110,Tulsa,74569,OH,4800 11-street,3996078555,hleinenbach@statholdings.com
111,Colorado Springs,93387,NE,7619 5-street,9823936856,cemard@zoomit.com
112,Long Beach,28816,MO,8173 12-street,1511038100,tsarbacher@j-texon.com
113,Chesapeake,34086,AZ,4038 9-street,6731482325,conofrio@goodsilron.com
114,Plano,86762,NV,430 8-street,4406556603,sferencz@xx-zobam.com
115,Newark,33972,TX,5179 20-street,902070166,cvanausdal@isdom.com
116,Kansas City,29178,AZ,7220 19-street,7748894677,dhollack@singletechno.com
117,Stockton,16715,OH,848 10-street,4905529608,cgabisi@condax.com
118,Chicago,68021,IL,4820 18-street,2413427937,nhalter@singletechno.com
119,Las Vegas,58119,WI,1159 9-street,2170210866,gdallen@mathtouch.com
120,Miami,43700,CA,4339 17-street,8312972609,lfrancescon@iselectrics.com
121,Phoenix,31575,AZ,6415 16-street,1898337879,ekorando@dalttechnology.com
122,Albuquerque,20955,AZ,2515 16-street,931861410,jdorshorst@labdrill.com
123,New York,67976,NY,4744 3-street,8183426972,gbourbon@plexzap.com
124,Detroit,54536,MI,6260 7-street,4306328339,ddilliard@gogozoom.com
125,Scottsdale,93273,NV,7054 11-street,4538841592,dperruzza@mathtouch.com
126,Laredo,57518,VA,4540 7-street,630062942,crim@zumgoity.com
127,Glendale,93038,TX,8021 5-street,252537201,crhym@sonron.com
128,Boise City,136,VA,1743 12-street,4249125767,rbuvens@singletechno.com
129,San Jose,43098,CA,2049 14-street,5519218700,gswayze@plusstrip.com
130,Virginia Beach,22984,GA,577 16-street,8735285394,hjurney@donware.com
131,Tucson,77673,CA,5817 20-street,9624346086,nleto@funholding.com
132,Bakersfield,11856,FL,8840 8-street,4238032546,vgabisi@statholdings.com
133,Laredo,47830,VA,3417 3-street,7796209189,kpoquette@kan-code.com
134,Stockton,20896,OH,4448 18-street,3766499174,loldroyd@betatech.com
135,Henderson,76813,NE,6131 5-street,9725616123,ltromblay@iselectrics.com
136,Laredo,78296,VA,9380 20-street,1775325211,cfoller@bioholding.com
137,Baton Rouge,4996,TX,2329 14-street,2410582174,mdickerson@doncon.com
138,Charlotte,54373,NC,6838 4-street,1474065656,ymeinerding@stanredtax.com
139,Santa Ana,75871,MO,2992 1-street,8760313153,dpalaia@xx-holding.com
140,Wichita,90763,TX,6348 16-street,1387483181,
141,Omaha,92888,NC,5373 1-street,7426212119,fkusko@kan-code.com
142,Fremont,71078,ID,3912 12-street,387395571,
143,Austin,75446,TX,1458 21-street,1459457367,jsuell@funholding.com
144,Irving,15760,AZ,7071 1-street,580743289,sdewar@scottech.com
145,Gilbert,74521,LA,9155 17-street,7654632414,aruta@labdrill.com
146,Orlando,99356,FL,9340 3-street,7128511197,tcookey@finjob.com
147,Chesapeake,79587,AZ,8693 2-street,4660937524,lschmaltz@dalttechnology.com
148,Fremont,42038,ID,2462 6-street,3282735182,rmonterrubio@green-plus.com
149,Colorado Springs,48404,NE,1301 5-street,2316653638,hsaylors@gogozoom.com
150,St. Petersburg,33292,AZ,964 19-street,6880971528,
151,Tulsa,67199,OH,3872 10-street,3740279441,chaufler@streethex.com
152,Baltimore,41836,OK,7721 18-street,5563624118,smadarang@rantouch.com
153,Buffalo,90135,NJ,8801 18-street,1852060442,ahidvegi@fasehatice.com
154,Irvine,23778,NC,4992 5-street,6166959529,dmaisto@yearin.com
155,Detroit,63375,MI,3993 20-street,7981674793,lragel@xx-zobam.com
156,Las Vegas,73936,WI,1645 18-street,8329388125,
157,Laredo,70047,VA,2460 19-street,1126906148,hfrey@groovestreet.com
158,Kansas City,28223,AZ,6603 12-street,397005212,srhym@dontechi.com
159,Laredo,66999,VA,409 4-street,8382211466,lhanafan@sonron.com
160,Oakland,32629,MN,3107 2-street,8634373082,afarrow@labdrill.com
161,Columbus,83937,OH,5850 8-street,2387266959,wkohl@sonron.com
162,Baltimore,10385,OK,1422 15-street,510521307,srantanen@treequote.com
163,Stockton,65997,OH,4411 14-street,5694805481,rgehrett@konex.com
164,Tulsa,61617,OH,1928 2-street,3677389687,
165,El Paso,59785,TX,6465 4-street,2339994772,mdinos@conecom.com
166,Baton Rouge,55642,TX,242 4-street,4951624688,tbaltimore@rangreen.com
167,Winston-Salem,96346,AZ,1017 19-street,1134310617,kkarpel@xx-zobam.com
168,Fort Worth,39236,TX,2796 11-street,2389609428,darias@streethex.com
169,Reno,84881,VA,1708 10-street,2639300368,plindall@plusstrip.com
170,New Orleans,22457,CA,8466 11-street,212694798,
171,Houston,84090,TX,1509 9-street,4632280861,ecorrio@ganjaflex.com
172,Newark,30851,TX,1040 5-street,9869492669,rbrideau@goodsilron.com
173,Baltimore,35496,OK,7614 7-street,8171982726,fkarpel@j-texon.com
174,Bakersfield,19496,FL,7287 1-street,1929123793,rdilliard@faxquote.com
175,San Antonio,83467,TX,5065 11-street,8926238928,efigeroa@rantouch.com
176,Gilbert,94538,LA,9693 2-street,1085763089,lshinko@doncon.com
177,Arlington,74749,LA,2477 15-street,781888153,mrentfro@plussunin.com
178,Albuquerque,78256,AZ,4217 17-street,9235978331,flipke@plusstrip.com
179,Houston,31291,TX,2408 15-street,1338445077,
180,Chicago,81884,IL,1147 8-street,654767806,scaudy@inity.com
181,Corpus Christi,85177,KY,5226 18-street,1217674385,lclaucherty@year-job.com
182,Orlando,55628,FL,8708 19-street,730456286,
183,St. Louis,18984,CA,112 18-street,6572955919,aabdallah@dontechi.com
184,Henderson,6239,NE,3624 2-street,8866201482,linouye@finjob.com
185,Lexington-Fayette,8615,PA,9024 8-street,6312967400,hbutzen@goodsilron.com
186,St. Paul,88833,OH,8898 4-street,5612118106,ffrancescon@golddex.com
187,Hialeah,23145,NV,5858 8-street,4762318058,fwaymire@singletechno.com
188,Irvine,46008,NC,9036 7-street,1531717499,cbrossart@betasoloin.com
189,Cleveland,54697,KS,7758 19-street,6468466355,vbartolet@green-plus.com
190,San Antonio,40150,TX,793 17-street,2756495714,qbuzick@betasoloin.com
191,San Diego,5941,CA,3914 1-street,921533741,
192,Los Angeles,72084,CA,2598 2-street,8768610251,crentfro@faxquote.com
193,Minneapolis,64295,OK,6272 13-street,5744449668,ikolmetz@rundofase.com
194,Irving,54644,AZ,5760 5-street,3455651660,emiceli@finhigh.com
195,Buffalo,65954,NJ,6012 4-street,750913566,
196,Lubbock,62340,CA,7409 2-street,7755636005,jpugh@blackzim.com
197,Minneapolis,56797,OK,8073 5-street,9617191815,dhughey@warephase.com
198,Oklahoma City,50636,KY,136 6-street,5637867424,jfern@labdrill.com
199,Nashville-Davidson,88454,MD,2361 2-street,9434742953,wcandlish@golddex.com
200,Baton Rouge,9367,TX,1835 18-street,1142353878,rsergi@fasehatice.com
